{
  "norad_id": 37843,
  "name": "VIASAT-1",
  "history": [
    {
      "epoch": "2026-03-28T11:59:38.679936Z",
      "apogee_km": 35796.004836679385,
      "perigee_km": 35778.67482570176,
      "latitude_deg": 0.029026742934372497,
      "longitude_deg": -115.11496994764937,
      "height_km": 35790.32195351826,
      "semi_major_axis_km": 42165.47683119057,
      "eccentricity": 0.0002055,
      "inclination_deg": 0.0209,
      "raan_deg": 216.4087,
      "arg_perigee_deg": 148.0419,
      "mean_anomaly_deg": 246.2631,
      "mean_motion_rev_day": 1.00269128
    },
    {
      "epoch": "2026-03-29T03:18:38.644992Z",
      "apogee_km": 35796.66997425159,
      "perigee_km": 35776.60797384314,
      "latitude_deg": -0.040397029002761195,
      "longitude_deg": -115.06594831434778,
      "height_km": 35790.574280801346,
      "semi_major_axis_km": 42164.77597404737,
      "eccentricity": 0.0002379,
      "inclination_deg": 0.0209,
      "raan_deg": 217.27,
      "arg_perigee_deg": 147.7719,
      "mean_anomaly_deg": 116.0536,
      "mean_motion_rev_day": 1.00271628
    },
    {
      "epoch": "2026-03-30T10:44:01.354560Z",
      "apogee_km": 35797.25518099247,
      "perigee_km": 35776.39786013738,
      "latitude_deg": 0.01715259964271642,
      "longitude_deg": -115.11238538440804,
      "height_km": 35793.610409433764,
      "semi_major_axis_km": 42164.963520564925,
      "eccentricity": 0.00024733,
      "inclination_deg": 0.0205,
      "raan_deg": 223.414,
      "arg_perigee_deg": 144.4931,
      "mean_anomaly_deg": 225.8241,
      "mean_motion_rev_day": 1.00270959
    },
    {
      "epoch": "2026-03-30T15:52:01.815168Z",
      "apogee_km": 35797.264019530674,
      "perigee_km": 35776.516296267364,
      "latitude_deg": 0.04279139328670187,
      "longitude_deg": -115.11733709421881,
      "height_km": 35780.7667167832,
      "semi_major_axis_km": 42165.02715789902,
      "eccentricity": 0.00024603,
      "inclination_deg": 0.0215,
      "raan_deg": 220.9725,
      "arg_perigee_deg": 147.4958,
      "mean_anomaly_deg": 302.4746,
      "mean_motion_rev_day": 1.00270732
    },
    {
      "epoch": "2026-03-31T15:49:36.857568Z",
      "apogee_km": 35798.094332616485,
      "perigee_km": 35776.53935261213,
      "latitude_deg": 0.04839019639644022,
      "longitude_deg": -115.10950360519325,
      "height_km": 35781.87540132839,
      "semi_major_axis_km": 42165.45384261431,
      "eccentricity": 0.0002556,
      "inclination_deg": 0.0249,
      "raan_deg": 204.6524,
      "arg_perigee_deg": 169.7357,
      "mean_anomaly_deg": 296.9477,
      "mean_motion_rev_day": 1.0026921
    },
    {
      "epoch": "2026-04-01T14:22:37.530336Z",
      "apogee_km": 35797.41422446013,
      "perigee_km": 35775.94390012121,
      "latitude_deg": 0.023959024896196158,
      "longitude_deg": -115.1337507940561,
      "height_km": 35785.19370179448,
      "semi_major_axis_km": 42164.81606229067,
      "eccentricity": 0.0002546,
      "inclination_deg": 0.0019,
      "raan_deg": 165.4846,
      "arg_perigee_deg": 209.9171,
      "mean_anomaly_deg": 275.0946,
      "mean_motion_rev_day": 1.00271485
    },
    {
      "epoch": "2026-04-02T15:23:06.181728Z",
      "apogee_km": 35797.91379431491,
      "perigee_km": 35776.89258590853,
      "latitude_deg": 0.0491931744615985,
      "longitude_deg": -115.12064946855165,
      "height_km": 35783.46299263487,
      "semi_major_axis_km": 42165.54019011172,
      "eccentricity": 0.00024927,
      "inclination_deg": 0.0229,
      "raan_deg": 211.0856,
      "arg_perigee_deg": 166.7308,
      "mean_anomaly_deg": 288.8406,
      "mean_motion_rev_day": 1.00268902
    },
    {
      "epoch": "2026-04-03T15:42:13.197024Z",
      "apogee_km": 35797.05315448507,
      "perigee_km": 35775.9623991677,
      "latitude_deg": 0.04561915425412905,
      "longitude_deg": -115.12682848939448,
      "height_km": 35781.395658264235,
      "semi_major_axis_km": 42164.64477682639,
      "eccentricity": 0.0002501,
      "inclination_deg": 0.0205,
      "raan_deg": 220.8689,
      "arg_perigee_deg": 155.8918,
      "mean_anomaly_deg": 295.6696,
      "mean_motion_rev_day": 1.00272096
    },
    {
      "epoch": "2026-04-04T13:56:59.532576Z",
      "apogee_km": 35796.88127843789,
      "perigee_km": 35775.55454772285,
      "latitude_deg": 0.038567607389558396,
      "longitude_deg": -115.12730542137787,
      "height_km": 35785.92034971115,
      "semi_major_axis_km": 42164.35491308037,
      "eccentricity": 0.0002529,
      "inclination_deg": 0.0181,
      "raan_deg": 225.8067,
      "arg_perigee_deg": 152.4126,
      "mean_anomaly_deg": 268.8224,
      "mean_motion_rev_day": 1.0027313
    },
    {
      "epoch": "2026-04-05T13:14:48.831648Z",
      "apogee_km": 35796.74805368566,
      "perigee_km": 35776.58315848732,
      "latitude_deg": 0.03133252753149508,
      "longitude_deg": -115.124573226427,
      "height_km": 35788.735932802876,
      "semi_major_axis_km": 42164.802606086494,
      "eccentricity": 0.00023912,
      "inclination_deg": 0.0167,
      "raan_deg": 229.5457,
      "arg_perigee_deg": 152.7259,
      "mean_anomaly_deg": 255.1841,
      "mean_motion_rev_day": 1.00271533
    },
    {
      "epoch": "2026-04-05T15:37:18.019200Z",
      "apogee_km": 35796.73124906231,
      "perigee_km": 35776.32355149258,
      "latitude_deg": 0.039086777582445296,
      "longitude_deg": -115.1232429060925,
      "height_km": 35782.2599552778,
      "semi_major_axis_km": 42164.66440027744,
      "eccentricity": 0.000242,
      "inclination_deg": 0.0168,
      "raan_deg": 229.8099,
      "arg_perigee_deg": 151.9261,
      "mean_anomaly_deg": 291.4396,
      "mean_motion_rev_day": 1.00272026
    },
    {
      "epoch": "2026-04-06T03:35:58.856928Z",
      "apogee_km": 35796.729599570026,
      "perigee_km": 35775.95516057946,
      "latitude_deg": -0.039287351980091166,
      "longitude_deg": -115.06923223820282,
      "height_km": 35789.61044934895,
      "semi_major_axis_km": 42164.47938007474,
      "eccentricity": 0.00024635,
      "inclination_deg": 0.0175,
      "raan_deg": 227.4856,
      "arg_perigee_deg": 154.716,
      "mean_anomaly_deg": 111.1383,
      "mean_motion_rev_day": 1.00272686
    }
  ]
}